[{"OBJECT_NAME":"STARLINK-5279","OBJECT_ID":"2022-141J","EPOCH":"2026-03-09T06:23:18.508416","MEAN_MOTION":15.08836644,"ECCENTRICITY":0.0001278,"INCLINATION":53.2184,"RA_OF_ASC_NODE":15.9954,"ARG_OF_PERICENTER":94.946,"MEAN_ANOMALY":265.1678,"EPHEMERIS_TYPE":0,"CLASSIFICATION_TYPE":"U","NORAD_CAT_ID":54165,"ELEMENT_SET_NO":999,"REV_AT_EPOCH":18565,"BSTAR":-1.0618904e-5,"MEAN_MOTION_DOT":-4.57e-6,"MEAN_MOTION_DDOT":0},{"OBJECT_NAME":"CZ-6A DEB","OBJECT_ID":"2024-140GC","EPOCH":"2026-03-09T13:34:49.028736","MEAN_MOTION":14.75009559,"ECCENTRICITY":0.0165561,"INCLINATION":88.9161,"RA_OF_ASC_NODE":274.3109,"ARG_OF_PERICENTER":173.9196,"MEAN_ANOMALY":186.409,"EPHEMERIS_TYPE":0,"CLASSIFICATION_TYPE":"U","NORAD_CAT_ID":60801,"ELEMENT_SET_NO":999,"REV_AT_EPOCH":8449,"BSTAR":0.00072752,"MEAN_MOTION_DOT":6.141e-5,"MEAN_MOTION_DDOT":0}]
